"Practice Name","Contact Name",Phone,Street,City,State,"Postal Code",Country,"Funding Schema","Area(s) of Practice"
"Bright Care ServiceS","Sendel Abraha",,,MELBOURNE,MEL,3000,AUSTRALIA,"Medicare,NDIS","AcuteCareRehab/Hospital,AssistiveTechnology,AutismSpectrumDisorder,CulturalCompetency,Disability,Modifications/Access,NDISPractice,OH&amp;S/Ergonomics,PainManagement,PalliativeCareandOncology,Rehabilitation,NeurologicalConditions,IntellectualDisability,OccupationalRehab"
"Monash Health","Melissa Andreotti",92657900,DandenongHospital,DANDENONG,DAN,3175,AUSTRALIA,Medicare,"AgedCarePractice,NeurologicalConditions,Disability,AcuteCareRehab/Hospital,Modifications/Access,AssistiveTechnology,Rehabilitation"
"Kerrie Armstrong Occupational Therapy Services","Kerrie Armstrong",,260OldTelegraphRd,JINDIVICK,JIN,3818,AUSTRALIA,"NDIS,AgedCare(CommonwealthHomeSupportProgramme/HomeCarePackages)","AcuteCareRehab/Hospital,AssistiveTechnology,AgedCarePractice,Disability,Leadership/Management,NDISPractice,ProfessionalSupervision,Research/Education,Rehabilitation"
"Brave Health Group","Bianca Ashby",1300000105,861DONCASTERRD,DONCASTEREAST,DON,3109,AUSTRALIA,NDIS,"PrivatePracticeArea,Rehabilitation,Paediatrics,NDISPractice,Modifications/Access,Disability,AgedCarePractice,AcuteCareRehab/Hospital,AutismSpectrumDisorder,IntellectualDisability"
"Ellie Allied Health Professional","Pamela Augusto-rojas",,41Applecrescentcaloundrawest,CALOUNDRAWEST,CAL,4551,AUSTRALIA,"AutismSpectrumDisorders,NDIS","AssistiveTechnology,AutismSpectrumDisorder,IntellectualDisability,NDISPractice,NeurologicalConditions,Paediatrics,PrivatePracticeArea,AcuteCareRehab/Hospital,Disability,FoundationSkills,OccupationalRehab,Rehabilitation,Research/Education"
OT@Home,"Azam Babaee",,,KNOXCITYANDWHITEHORSECOUNCIL,KNO,3152,AUSTRALIA,"AgedCare(CommonwealthHomeSupportProgramme/HomeCarePackages),EnhancedPrimaryCare,MAC,MedicareandBetterAccesstoMentalHealth,DepartmentofVeterans'Affairs(DVA),AutismSpectrumDisorders,Aidsandequipmentschemes(stateandterritory),Medicare,NDIS,TAC(VIC),Medicare-ChronicDiseaseManagement,BetterAccesstoMentalHealth(BAMH)Endorsed","AutismSpectrumDisorder,VisionImpairment,IntellectualDisability,AcuteCareRehab/Hospital,PainManagement,FoundationSkills,PrivatePracticeArea,CarerandConsumerFocus,CommunicationsPartner(SA)-AccreditationRequired,CulturalCompetency,HandTherapy/Lymphedema,KnowledgeTranslation,Leadership/Management,NonClinicalProfessionalDevelopment,OccupationalRehab,OH&amp;S/Ergonomics,OtherPractice,PalliativeCareandOncology,PrimaryHealth,ProfessionalSupervision,Research/Education,Paediatrics,Rehabilitation,Disability,AssistiveTechnology,Modifications/Access,MentalHealthinc.forensicAODandrefugees,NDISPractice,NeurologicalConditions,AgedCarePractice"
"Adapting to Life - Occupational Therapy","Emma Baldwin",,"134MainStreet,Pakenham3810",PAKENHAM,PAK,3810,AUSTRALIA,"Aidsandequipmentschemes(stateandterritory),Medicare-ChronicDiseaseManagement,AgedCare(CommonwealthHomeSupportProgramme/HomeCarePackages),EnhancedPrimaryCare,DepartmentofVeterans'Affairs(DVA),Medicare","VisionImpairment,AcuteCareRehab/Hospital,PrivatePracticeArea,Modifications/Access"
"My Health Space - (myhealthspace.com.au)","Zara Barling-Mills",,,GEELONGANDSURFCOAST,GEE,,AUSTRALIA,"AutismSpectrumDisorders,DepartmentofVeterans'Affairs(DVA),EnhancedPrimaryCare,Medicare,Medicare-ChronicDiseaseManagement,MedicareandBetterAccesstoMentalHealth,NDIS,TAC(VIC),WorkSafe(VIC,ACT,NT,TAS),MAC,AgedCare(CommonwealthHomeSupportProgramme/HomeCarePackages),Aidsandequipmentschemes(stateandterritory)","NonClinicalProfessionalDevelopment,Leadership/Management,AssistiveTechnology,AutismSpectrumDisorder,Disability,IntellectualDisability,NeurologicalConditions,OtherPractice,Paediatrics,PainManagement,VisionImpairment,MentalHealthinc.forensicAODandrefugees,AgedCarePractice,AcuteCareRehab/Hospital,PalliativeCareandOncology,Research/Education,Modifications/Access,NDISPractice,PrivatePracticeArea,ProfessionalSupervision,Rehabilitation"
"Mater Private Hospital - Redlands","Chelsea Bartlett",,WEIPPINST,CLEVELAND,CLE,4163,AUSTRALIA,"AgedCare(CommonwealthHomeSupportProgramme/HomeCarePackages),Aidsandequipmentschemes(stateandterritory),DepartmentofVeterans'Affairs(DVA),MAC,Medicare,Workcover(QLD,WA)","AcuteCareRehab/Hospital,Disability,Modifications/Access,NeurologicalConditions,Rehabilitation"
"Hesse Rural Health Service","Elli Bartlett",,8GOSNEYST,WINCHELSEA,WIN,3241,AUSTRALIA,"DepartmentofVeterans'Affairs(DVA),AgedCare(CommonwealthHomeSupportProgramme/HomeCarePackages)","AcuteCareRehab/Hospital,Modifications/Access,AgedCarePractice"
"Mental Health Liaison Police Communications Centre","Kim Baskin",,"Level2,270RomaSt.,",BRISBANE,BRI,4001,AUSTRALIA,"DepartmentofVeterans'Affairs(DVA),NDIS","HandTherapy/Lymphedema,Modifications/Access,NDISPractice,PrivatePracticeArea,Rehabilitation,VisionImpairment,NeurologicalConditions,Disability,AgedCarePractice,AcuteCareRehab/Hospital"
"Enhance Occupational Therapy","Trent Basley",0882763355,2AVERAVENUE,DAWPARK,DAW,5041,AUSTRALIA,"MAC,LifetimeCareandSupport(ACT,SA),Aidsandequipmentschemes(stateandterritory),DepartmentofVeterans'Affairs(DVA),EnhancedPrimaryCare,Medicare,Medicare-ChronicDiseaseManagement,NDIS,TAC(VIC),Transportaccidentbodies(stateandterritory),Workerscompensationschemes(stateandterritory),AgedCare(CommonwealthHomeSupportProgramme/HomeCarePackages),Workcover(QLD,WA),Comcare","IntellectualDisability,Medico-LegalPractice,ProfessionalSupervision,Modifications/Access,AssistiveTechnology,Disability,Rehabilitation,NDISPractice,NeurologicalConditions,AgedCarePractice,PalliativeCareandOncology,PrivatePracticeArea,PrimaryHealth,CulturalCompetency,AcuteCareRehab/Hospital,CarerandConsumerFocus"
"Austin Health","Yashashree Bedekar",,RoyalTalbotRehabilitationCentre1YarraBoulevard,KEW,KEW,3031,AUSTRALIA,,"AssistiveTechnology,NeurologicalConditions,Rehabilitation,Research/Education,PrivatePracticeArea,OccupationalRehab,Medico-LegalPractice,AcuteCareRehab/Hospital"
SACARE,"Tammie Betchley",,586REGENCYRD,BROADVIEW,BRO,5083,AUSTRALIA,"NDIS,ReturntoWork(SA),Transportaccidentbodies(stateandterritory),LifetimeCareandSupport(ACT,SA),Aidsandequipmentschemes(stateandterritory),MAC,Comcare,Medicare,Workerscompensationschemes(stateandterritory),AgedCare(CommonwealthHomeSupportProgramme/HomeCarePackages)","AssistiveTechnology,Disability,NeurologicalConditions,Modifications/Access,NDISPractice,AcuteCareRehab/Hospital,IntellectualDisability,AutismSpectrumDisorder,PainManagement,PolicyandProcess,Rehabilitation"
"Accessing Health P/L","Rosemary Bignell",,14KellettGrove,KEW,KEW,3101,AUSTRALIA,"AgedCare(CommonwealthHomeSupportProgramme/HomeCarePackages),DepartmentofVeterans'Affairs(DVA),EnhancedPrimaryCare,Medicare,NDIS","Modifications/Access,PrimaryHealth,AssistiveTechnology,AgedCarePractice,PalliativeCareandOncology,PrivatePracticeArea,HandTherapy/Lymphedema,NeurologicalConditions,Rehabilitation,AcuteCareRehab/Hospital,Research/Education"
"National Critical Care and Trauma Response Centre","Erica Bleakley",,5LancasterAve,EATON,EAT,0820,AUSTRALIA,,"AcuteCareRehab/Hospital,HandTherapy/Lymphedema,NeurologicalConditions,OtherPractice,Rehabilitation"
"Full Bloom Occupational Therapy","Limor Bloom",,,,,,,"NDIS,Medicare","AcuteCareRehab/Hospital,AutismSpectrumDisorder,Disability,IntellectualDisability,NDISPractice,NeurologicalConditions,PrivatePracticeArea,Paediatrics,Rehabilitation"
"Independent Living Specialists","Carly Bloomfield",,,ORANGE,ORA,2800,AUSTRALIA,"iCare(NSW),LifetimeCareandSupport(ACT,SA),MAC,NDIS,AgedCare(CommonwealthHomeSupportProgramme/HomeCarePackages),Aidsandequipmentschemes(stateandterritory),DepartmentofVeterans'Affairs(DVA)","IntellectualDisability,VisionImpairment,Rehabilitation,PrivatePracticeArea,PrimaryHealth,PainManagement,KnowledgeTranslation,AssistiveTechnology,Paediatrics,OH&amp;S/Ergonomics,NeurologicalConditions,AgedCarePractice,PalliativeCareandOncology,AcuteCareRehab/Hospital,Modifications/Access,Disability"
AB-OT,"Angela Boschen",,,LAKESENTRANCE,LAK,3909,AUSTRALIA,"AgedCare(CommonwealthHomeSupportProgramme/HomeCarePackages),Aidsandequipmentschemes(stateandterritory),NDIS,EnhancedPrimaryCare","AcuteCareRehab/Hospital,AgedCarePractice,NDISPractice,PalliativeCareandOncology,NeurologicalConditions,PainManagement,Rehabilitation,Disability,Modifications/Access,AssistiveTechnology"
"Mid West Area Mental Health Service","Khazen Boukhazen",,4DEVONSHIRERD,SUNSHINE,SUN,3020,AUSTRALIA,"AgedCare(CommonwealthHomeSupportProgramme/HomeCarePackages),Aidsandequipmentschemes(stateandterritory),EnhancedPrimaryCare,Medicare,MedicareandBetterAccesstoMentalHealth,NDIS,TAC(VIC),WorkSafe(VIC,ACT,NT,TAS),Workerscompensationschemes(stateandterritory)","PrivatePracticeArea,CulturalCompetency,Disability,NDISPractice,MentalHealthinc.forensicAODandrefugees,Modifications/Access,OH&amp;S/Ergonomics,OtherPractice,Research/Education,IntellectualDisability,AutismSpectrumDisorder,AssistiveTechnology,AgedCarePractice,AcuteCareRehab/Hospital"
"Catalyst Therapy Services","Leona Boyle",,1BryonyCourt,KIRWAN,KIR,4817,AUSTRALIA,,"AgedCarePractice,AssistiveTechnology,CarerandConsumerFocus,Disability,IntellectualDisability,Modifications/Access,NDISPractice,NeurologicalConditions,PrivatePracticeArea,Rehabilitation,VisionImpairment,AcuteCareRehab/Hospital,CulturalCompetency,OH&amp;S/Ergonomics,PalliativeCareandOncology,PrimaryHealth"
"ActivOT North Adelaide","Katherine Brady",,POBox174,NORTHADELAIDE,NOR,5006,AUSTRALIA,"Aidsandequipmentschemes(stateandterritory),AgedCare(CommonwealthHomeSupportProgramme/HomeCarePackages),DepartmentofVeterans'Affairs(DVA),Medicare,NDIS","Modifications/Access,AcuteCareRehab/Hospital,AssistiveTechnology,HandTherapy/Lymphedema,NDISPractice,NeurologicalConditions,AgedCarePractice,PalliativeCareandOncology,Rehabilitation"
"Tasmanian Occupational Therapy Services","Danyelle Briggs",,144Tasmanhwy,BICHENO,BIC,7215,AUSTRALIA,"AgedCare(CommonwealthHomeSupportProgramme/HomeCarePackages),Aidsandequipmentschemes(stateandterritory),EnhancedPrimaryCare,Medicare,NDIS,Transportaccidentbodies(stateandterritory),Workerscompensationschemes(stateandterritory),WorkSafe(VIC,ACT,NT,TAS)","AcuteCareRehab/Hospital,AgedCarePractice,AssistiveTechnology,AutismSpectrumDisorder,Disability,IntellectualDisability,Medico-LegalPractice,NDISPractice,NeurologicalConditions,OccupationalRehab,PalliativeCareandOncology,PrivatePracticeArea,Modifications/Access,Rehabilitation,OH&amp;S/Ergonomics"
"WACHS Midwest - Aged and Community Care","Jane Brown",,ShentonSHENTONSTREET,GERALDTON,GER,6530,AUSTRALIA,,"AcuteCareRehab/Hospital,AgedCarePractice,CarerandConsumerFocus,Leadership/Management,MentalHealthinc.forensicAODandrefugees,PolicyandProcess,Rehabilitation,AutismSpectrumDisorder,CulturalCompetency,IntellectualDisability,NeurologicalConditions,PrivatePracticeArea,ProfessionalSupervision"
"Therapy Pro","Simone Brown",,,,,,,,"AcuteCareRehab/Hospital,AutismSpectrumDisorder,CarerandConsumerFocus,CommunicationsPartner(SA)-AccreditationRequired,FoundationSkills,HandTherapy/Lymphedema,IntellectualDisability,KnowledgeTranslation,Leadership/Management,MentalHealthinc.forensicAODandrefugees,NDISPractice,NeurologicalConditions,NonClinicalProfessionalDevelopment,OccupationalRehab,PainManagement,PalliativeCareandOncology,PolicyandProcess,PrimaryHealth,PrivatePracticeArea,VisionImpairment,OH&amp;S/Ergonomics,AssistiveTechnology,Modifications/Access,Paediatrics,Rehabilitation,Research/Education,Disability,Driving"
"University of Queensland","Chloe Bryant",,,STLUCIA,ST,4072,AUSTRALIA,"DepartmentofVeterans'Affairs(DVA),MAC,Medicare,Aidsandequipmentschemes(stateandterritory),AgedCare(CommonwealthHomeSupportProgramme/HomeCarePackages)","AcuteCareRehab/Hospital,KnowledgeTranslation,Rehabilitation,NeurologicalConditions,Research/Education"
"Bundaberg Occupational Therapy","Sarah Bryant",,298BourbongStreet,BUNDABERG,BUN,4670,AUSTRALIA,"DepartmentofVeterans'Affairs(DVA),NDIS,Workcover(QLD,WA),Transportaccidentbodies(stateandterritory),Workerscompensationschemes(stateandterritory)","AcuteCareRehab/Hospital,AgedCarePractice,HandTherapy/Lymphedema"
OpportunOTy,"Talisha Bryden",,1/31FlemingStreet,AITKENVALE,AIT,4814,AUSTRALIA,NDIS,"AgedCarePractice,AutismSpectrumDisorder,CarerandConsumerFocus,CulturalCompetency,Disability,FoundationSkills,HandTherapy/Lymphedema,IntellectualDisability,KnowledgeTranslation,Leadership/Management,MentalHealthinc.forensicAODandrefugees,Modifications/Access,OH&amp;S/Ergonomics,OccupationalRehab,OtherPractice,PainManagement,PalliativeCareandOncology,PolicyandProcess,PrimaryHealth,Rehabilitation,Research/Education,VisionImpairment,Driving,AcuteCareRehab/Hospital,NDISPractice,NeurologicalConditions,Paediatrics,PrivatePracticeArea,ProfessionalSupervision,AssistiveTechnology"
"Independent Occupational Therapists (IOT)","Emily Burke",,"OfficeA,Level1,WingA,TheCentral,InnovationCampusSquiresWay",NORTHWOLLONGONG,NOR,2500,AUSTRALIA,"NDIS,Workerscompensationschemes(stateandterritory),Aidsandequipmentschemes(stateandterritory),AutismSpectrumDisorders","AgedCarePractice,AutismSpectrumDisorder,Disability,IntellectualDisability,Modifications/Access,NDISPractice,NeurologicalConditions,PrivatePracticeArea,Rehabilitation,VisionImpairment,AssistiveTechnology,AcuteCareRehab/Hospital"
"Ambulatory Aged Care Programs GVHealth Shepparton","Jane Calvett",,22NEWDOOKIEROAD,SHEPPARTON,SHE,3630,AUSTRALIA,,"MentalHealthinc.forensicAODandrefugees,OccupationalRehab,Paediatrics,Rehabilitation,AcuteCareRehab/Hospital,PrimaryHealth,NeurologicalConditions,CulturalCompetency"
"SCHOT Pty Ltd","Suzanne Caragianis",0882779667,638GoodwoodRd,DAWPARK,DAW,5041,AUSTRALIA,"DepartmentofVeterans'Affairs(DVA),EnhancedPrimaryCare,LifetimeCareandSupport(ACT,SA),Medicare,MAC,Medicare-ChronicDiseaseManagement,ReturntoWork(SA)","HandTherapy/Lymphedema,AcuteCareRehab/Hospital,Medico-LegalPractice,Leadership/Management,PainManagement,OccupationalRehab,PrivatePracticeArea,Research/Education,Rehabilitation"
"Shoalhaven Occupational Therapy","Claire Carson",,POBox2034,BOMADERRY,BOM,2541,AUSTRALIA,"AgedCare(CommonwealthHomeSupportProgramme/HomeCarePackages),NDIS,Aidsandequipmentschemes(stateandterritory),Medicare,Medicare-ChronicDiseaseManagement","AgedCarePractice,Disability,NDISPractice,AssistiveTechnology,IntellectualDisability,Modifications/Access,NeurologicalConditions,Leadership/Management,PainManagement,PrivatePracticeArea,Rehabilitation,Research/Education,AcuteCareRehab/Hospital,AutismSpectrumDisorder"
"Advantage OT","Naomi Cezana",,"U113,365aEdgecliffRoad",EDGECLIFF,EDG,2027,AUSTRALIA,"AgedCare(CommonwealthHomeSupportProgramme/HomeCarePackages),Aidsandequipmentschemes(stateandterritory),EnhancedPrimaryCare,Medicare,Medicare-ChronicDiseaseManagement,DepartmentofVeterans'Affairs(DVA),MAC","AgedCarePractice,AssistiveTechnology,CarerandConsumerFocus,Leadership/Management,NonClinicalProfessionalDevelopment,PainManagement,PalliativeCareandOncology,ProfessionalSupervision,Research/Education,VisionImpairment,AcuteCareRehab/Hospital,CulturalCompetency,Disability,Driving,Medico-LegalPractice,OH&amp;S/Ergonomics,OtherPractice,PolicyandProcess,PrimaryHealth,NeurologicalConditions,Rehabilitation,Modifications/Access"
"Hervey Bay Occupational Health","Joanna Chandler",,,HERVEYBAY,HER,4655,AUSTRALIA,"AgedCare(CommonwealthHomeSupportProgramme/HomeCarePackages),Aidsandequipmentschemes(stateandterritory),NDIS","AgedCarePractice,AssistiveTechnology,IntellectualDisability,Medico-LegalPractice,NDISPractice,NeurologicalConditions,OccupationalRehab,PrivatePracticeArea,AcuteCareRehab/Hospital,PainManagement,PalliativeCareandOncology,VisionImpairment,CarerandConsumerFocus,NonClinicalProfessionalDevelopment,PolicyandProcess,PrimaryHealth,Modifications/Access,Disability,OH&amp;S/Ergonomics,Rehabilitation"
"QLD Health - Allied Health Professions Office - ","Alicia Chaplain",,"OccupationalTherapyDepartment,RedcliffeHospitalAnzacAvenue",REDCLIFFE,RED,4020,AUSTRALIA,NDIS,"AcuteCareRehab/Hospital,OtherPractice"
"Therapy Care","Louisa Cheng",,"Level2,55CampbellStreet(BlacktownWorkersClub)",BLACKTOWN,BLA,2148,AUSTRALIA,,"NDISPractice,PalliativeCareandOncology,AssistiveTechnology,Disability,AcuteCareRehab/Hospital,Modifications/Access,Paediatrics,Rehabilitation,AgedCarePractice"
"The Southport Private Hospital","Katherine Chenoweth",,21SpendeloveAve,SOUTHPORT,SOU,4215,AUSTRALIA,"Aidsandequipmentschemes(stateandterritory),AgedCare(CommonwealthHomeSupportProgramme/HomeCarePackages),DepartmentofVeterans'Affairs(DVA),EnhancedPrimaryCare,Medicare,Medicare-ChronicDiseaseManagement,NDIS,Transportaccidentbodies(stateandterritory),Workcover(QLD,WA),MAC,Workerscompensationschemes(stateandterritory),Comcare","AcuteCareRehab/Hospital,Rehabilitation"
"Simplify Health","Flora Chong",,ServicesArea,MTLAWLEY,MT,6015,AUSTRALIA,"AgedCare(CommonwealthHomeSupportProgramme/HomeCarePackages),MedicareandBetterAccesstoMentalHealth,DepartmentofVeterans'Affairs(DVA),Medicare,EnhancedPrimaryCare,NDIS,Medicare-ChronicDiseaseManagement,BetterAccesstoMentalHealth(BAMH)Endorsed","Leadership/Management,PrimaryHealth,Disability,AgedCarePractice,NDISPractice,PrivatePracticeArea,MentalHealthinc.forensicAODandrefugees,AcuteCareRehab/Hospital"
"Lingard Private Hospital","Yi Po (Bonny) Chou",0249298774,23MerewetherStreet,MEREWETHER,MER,2291,AUSTRALIA,"Aidsandequipmentschemes(stateandterritory),DepartmentofVeterans'Affairs(DVA),EnhancedPrimaryCare,Medicare,NDIS,AutismSpectrumDisorders","Disability,Modifications/Access,AcuteCareRehab/Hospital,AssistiveTechnology,PrimaryHealth"
"Abilities OT - Private Practitioner","Carly Clarke",,POBOX407,ANGASTON,ANG,5353,AUSTRALIA,"AgedCare(CommonwealthHomeSupportProgramme/HomeCarePackages),Aidsandequipmentschemes(stateandterritory),DepartmentofVeterans'Affairs(DVA),EnhancedPrimaryCare,LifetimeCareandSupport(ACT,SA),Medicare-ChronicDiseaseManagement,NDIS","AgedCarePractice,AssistiveTechnology,AcuteCareRehab/Hospital,NDISPractice,NeurologicalConditions,PrivatePracticeArea,Rehabilitation,Modifications/Access,Disability"
"Total Occupational Therapy","Hannah Coe",,POBox291,BRIGHTON,BRI,7030,AUSTRALIA,"AgedCare(CommonwealthHomeSupportProgramme/HomeCarePackages),Aidsandequipmentschemes(stateandterritory),Medicare,DepartmentofVeterans'Affairs(DVA)","AcuteCareRehab/Hospital,AgedCarePractice,Modifications/Access,PrivatePracticeArea,Rehabilitation"
"Allegro Physiotherapy","Jessica Collard",,,GERALDTON,GER,6530,AUSTRALIA,,"AcuteCareRehab/Hospital,Disability,NeurologicalConditions,PainManagement,VisionImpairment"
"Avanza Rehab","Abigail Comer",,,,,,,,"AgedCarePractice,AcuteCareRehab/Hospital,ProfessionalSupervision,NeurologicalConditions"
"Deft OT","Megan Condron",,41CorinellaRoad,WOODEND,WOO,3442,AUSTRALIA,"Medicare-ChronicDiseaseManagement,AgedCare(CommonwealthHomeSupportProgramme/HomeCarePackages),Aidsandequipmentschemes(stateandterritory),DepartmentofVeterans'Affairs(DVA),MAC,NDIS","CarerandConsumerFocus,IntellectualDisability,NDISPractice,NeurologicalConditions,PrimaryHealth,PrivatePracticeArea,AssistiveTechnology,Modifications/Access,Rehabilitation,AcuteCareRehab/Hospital,AgedCarePractice,PalliativeCareandOncology,Disability"
"Healthcare Australia","Hana Cooke",,,WOOLLOONGABA,WOO,4102,AUSTRALIA,,"PainManagement,PalliativeCareandOncology,AcuteCareRehab/Hospital,AssistiveTechnology,Disability,Modifications/Access,NDISPractice,NeurologicalConditions,AgedCarePractice,PrimaryHealth,Rehabilitation"
"Austin Health","Laura Crowther",0394965000,STUDLEYRD,HEIDELBERG,HEI,3084,AUSTRALIA,,"AcuteCareRehab/Hospital,AutismSpectrumDisorder,NDISPractice,NeurologicalConditions,Paediatrics,PrivatePracticeArea,ProfessionalSupervision,Rehabilitation,AgedCarePractice,HandTherapy/Lymphedema"
"Cooloola Hand Therapy","Christine Cumerford",,"Unit6,70-72ChannonStreet",GYMPIE,GYM,4570,AUSTRALIA,"Medicare-ChronicDiseaseManagement,Workcover(QLD,WA),DepartmentofVeterans'Affairs(DVA),EnhancedPrimaryCare,NDIS,Medicare","HandTherapy/Lymphedema,OtherPractice,PainManagement,PrivatePracticeArea,OH&amp;S/Ergonomics,AcuteCareRehab/Hospital,Modifications/Access,NeurologicalConditions,OccupationalRehab,PrimaryHealth,Research/Education,Rehabilitation"
"Synergy Rehab Solutions","Lisa Davis",,POBox503,MOFFATBEACH,MOF,4551,AUSTRALIA,"AgedCare(CommonwealthHomeSupportProgramme/HomeCarePackages),Medicare,NDIS,Aidsandequipmentschemes(stateandterritory),TAC(VIC),Transportaccidentbodies(stateandterritory)","AcuteCareRehab/Hospital,Disability,NDISPractice,NeurologicalConditions,Rehabilitation,PrivatePracticeArea,Modifications/Access,AssistiveTechnology,AgedCarePractice,IntellectualDisability"
"Ipswich Therapy Centre","Daniele Day",,Unit2/11EllenboroughStreet,WOODEND,WOO,4305,AUSTRALIA,NDIS,"AgedCarePractice,AssistiveTechnology,AcuteCareRehab/Hospital,Disability,Modifications/Access,NDISPractice,NeurologicalConditions,PrivatePracticeArea,Rehabilitation"
"Perth Scar and Pain Clinic - 4/7 The Esplanade, Mount Pleasant. Western Australia, Australia","Helen DeJong",,4/7THEESPLANADE,MOUNTPLEASANT,MOU,6153,AUSTRALIA,"Workcover(QLD,WA),Workerscompensationschemes(stateandterritory),EnhancedPrimaryCare,Transportaccidentbodies(stateandterritory),Medicare-ChronicDiseaseManagement","NeurologicalConditions,PainManagement,PalliativeCareandOncology,Paediatrics,OtherPractice,HandTherapy/Lymphedema,AcuteCareRehab/Hospital,PrivatePracticeArea,Rehabilitation,Research/Education"
"Colette Dempsey OT","Colette Dempsey",,,HILLSBOROUGH,HIL,,AUSTRALIA,"AgedCare(CommonwealthHomeSupportProgramme/HomeCarePackages),iCare(NSW),NDIS,MAC,Aidsandequipmentschemes(stateandterritory)","AgedCarePractice,AcuteCareRehab/Hospital,Disability,IntellectualDisability,Modifications/Access,NDISPractice,PalliativeCareandOncology,PrivatePracticeArea,ProfessionalSupervision,NeurologicalConditions"
Talkativity,"Anjali Devasia",,,PAKENHAM,PAK,3810,AUSTRALIA,"Medicare,AutismSpectrumDisorders,AgedCare(CommonwealthHomeSupportProgramme/HomeCarePackages),Aidsandequipmentschemes(stateandterritory),DepartmentofVeterans'Affairs(DVA),Medicare-ChronicDiseaseManagement,NDIS","OccupationalRehab,OH&amp;S/Ergonomics,MentalHealthinc.forensicAODandrefugees,Leadership/Management,KnowledgeTranslation,Driving,HandTherapy/Lymphedema,AcuteCareRehab/Hospital,AgedCarePractice,AssistiveTechnology,AutismSpectrumDisorder,CarerandConsumerFocus,CulturalCompetency,Disability,IntellectualDisability,NDISPractice,NeurologicalConditions,PainManagement,PalliativeCareandOncology,VisionImpairment,Research/Education,Rehabilitation,ProfessionalSupervision,PrivatePracticeArea,Paediatrics,Modifications/Access,Medico-LegalPractice"
"Re-Able Occupational Therapy Services","Dean Dimmock",,14GalaxyCourt,MCLARENVALE,MCL,5171,AUSTRALIA,"AgedCare(CommonwealthHomeSupportProgramme/HomeCarePackages),AutismSpectrumDisorders,DepartmentofVeterans'Affairs(DVA),Medicare,NDIS","PrimaryHealth,AcuteCareRehab/Hospital,Disability,Modifications/Access,HandTherapy/Lymphedema,MentalHealthinc.forensicAODandrefugees,NDISPractice,OccupationalRehab,AgedCarePractice,Rehabilitation"
"Hunter Community Services","Mykaela Donohoe",,670HUNTERST,NEWCASTLEWEST,NEW,2302,AUSTRALIA,"NDIS,AgedCare(CommonwealthHomeSupportProgramme/HomeCarePackages)","AgedCarePractice,Modifications/Access,PrivatePracticeArea,Rehabilitation,Research/Education,NeurologicalConditions,AcuteCareRehab/Hospital,VisionImpairment,NDISPractice"
"Scope Home Access","Vicky Doran",,,,,,,"AgedCare(CommonwealthHomeSupportProgramme/HomeCarePackages),DepartmentofVeterans'Affairs(DVA),MAC,NDIS","Modifications/Access,AcuteCareRehab/Hospital,AgedCarePractice,NeurologicalConditions,PalliativeCareandOncology,Disability,AssistiveTechnology,Rehabilitation"
"Flinders University","Alison Dymmott",0872218214,CollegeofNursingandHealthSciences,BEDFORDPARK,BED,5042,AUSTRALIA,,"Paediatrics,Rehabilitation,AcuteCareRehab/Hospital,NeurologicalConditions,Research/Education"
"Royal Adelaide Hospital, Adelaide, SA","Ross Eldridge",,PortRd,ADELAIDE,ADE,5000,AUSTRALIA,,"NeurologicalConditions,AcuteCareRehab/Hospital"
"OCCUPATIONAL THERAPY SYDNEY WEST","MIRVAT EL-KAZZI",,SHOPC1504WOODVILLEROAD,GUILDFORD,GUI,2161,AUSTRALIA,"NDIS,Medicare-ChronicDiseaseManagement,Medicare,Aidsandequipmentschemes(stateandterritory)","AgedCarePractice,AutismSpectrumDisorder,IntellectualDisability,OccupationalRehab,MentalHealthinc.forensicAODandrefugees,Research/Education,PrimaryHealth,Disability,Driving,Rehabilitation,Modifications/Access,AcuteCareRehab/Hospital,CulturalCompetency,NDISPractice,NeurologicalConditions,Paediatrics,PrivatePracticeArea,AssistiveTechnology,OH&amp;S/Ergonomics"
LifePsychles,"Suzanne Eustace",,suite10291BongBongstreet,BOWRAL,BOW,2576,AUSTRALIA,"AgedCare(CommonwealthHomeSupportProgramme/HomeCarePackages),Aidsandequipmentschemes(stateandterritory),DepartmentofVeterans'Affairs(DVA),EnhancedPrimaryCare,NDIS","Modifications/Access,AssistiveTechnology,Rehabilitation,AcuteCareRehab/Hospital,Disability,NDISPractice,AgedCarePractice,NeurologicalConditions"
"Bendigo Health","Shelley Evely",,ServicesArea,BENDIGO,BEN,3550,AUSTRALIA,"AgedCare(CommonwealthHomeSupportProgramme/HomeCarePackages),Aidsandequipmentschemes(stateandterritory),DepartmentofVeterans'Affairs(DVA),Medicare","Disability,Rehabilitation,NDISPractice,NeurologicalConditions,NonClinicalProfessionalDevelopment,ProfessionalSupervision,PainManagement,AcuteCareRehab/Hospital,Modifications/Access,AssistiveTechnology"
"Jane Flanagan Occupational Therapist - Private Practice","Jane Flanagan",,,,,,,"AgedCare(CommonwealthHomeSupportProgramme/HomeCarePackages),DepartmentofVeterans'Affairs(DVA),NDIS","PrivatePracticeArea,AcuteCareRehab/Hospital,AgedCarePractice,AssistiveTechnology,Modifications/Access,NDISPractice"
"Monash Medical Centre","Nechma Franck",,,CLAYTON,CLA,3168,AUSTRALIA,"WorkSafe(VIC,ACT,NT,TAS),Aidsandequipmentschemes(stateandterritory),DepartmentofVeterans'Affairs(DVA),Medicare,TAC(VIC)","Modifications/Access,OccupationalRehab,PrivatePracticeArea,AgedCarePractice,PrimaryHealth,Rehabilitation,AcuteCareRehab/Hospital"
"Caulfield Hospital","Lynne Fricke",0390766165,260-294KooyongRoad,CAULFIELD,CAU,3162,AUSTRALIA,"NDIS,TAC(VIC),Aidsandequipmentschemes(stateandterritory)","AcuteCareRehab/Hospital,Driving,Rehabilitation"
"Hunter New England Area Health Service","Janet Frith",,,CESSNOCK,CES,2325,AUSTRALIA,"AgedCare(CommonwealthHomeSupportProgramme/HomeCarePackages),DepartmentofVeterans'Affairs(DVA),Medicare,Medicare-ChronicDiseaseManagement,Aidsandequipmentschemes(stateandterritory),EnhancedPrimaryCare,iCare(NSW),NDIS","Leadership/Management,AgedCarePractice,KnowledgeTranslation,NonClinicalProfessionalDevelopment,ProfessionalSupervision,Rehabilitation,PolicyandProcess,NeurologicalConditions,Paediatrics,Driving,Research/Education,AcuteCareRehab/Hospital"
"Flinders University","Stacey George",0872218287,GPOBox2100,ADELAIDE,ADE,5000,AUSTRALIA,,"KnowledgeTranslation,VisionImpairment,AcuteCareRehab/Hospital,NeurologicalConditions,Rehabilitation,Research/Education,Driving"
"Fraser Coast Queensland Health","Paula Glancy",,,,,,,"DepartmentofVeterans'Affairs(DVA),NDIS,Medicare,SIRA(NSW),EnhancedPrimaryCare,Workcover(QLD,WA),Medicare-ChronicDiseaseManagement,Comcare,AgedCare(CommonwealthHomeSupportProgramme/HomeCarePackages),Aidsandequipmentschemes(stateandterritory),iCare(NSW)","Rehabilitation,OccupationalRehab,Paediatrics,PainManagement,PrivatePracticeArea,NeurologicalConditions,AgedCarePractice,Modifications/Access,NDISPractice,OH&amp;S/Ergonomics,AcuteCareRehab/Hospital,HandTherapy/Lymphedema,PrimaryHealth"
"One Life OT","Siobhan Gourd",,,MIAMI,MIA,4220,AUSTRALIA,NDIS,"AcuteCareRehab/Hospital,NDISPractice,NeurologicalConditions,OccupationalRehab,Rehabilitation"
"State Head Injury Unit","Joanna Grzech",,HospitalAve,PERTH,PER,6000,AUSTRALIA,,"Rehabilitation,AcuteCareRehab/Hospital,Disability,NDISPractice,NeurologicalConditions,OccupationalRehab"
"Adapt Health Care","Mark Hanson",,,,,,,"NDIS,Medicare,Medicare-ChronicDiseaseManagement,Workcover(QLD,WA),AgedCare(CommonwealthHomeSupportProgramme/HomeCarePackages),Aidsandequipmentschemes(stateandterritory),TAC(VIC),Transportaccidentbodies(stateandterritory),WorkSafe(VIC,ACT,NT,TAS),DepartmentofVeterans'Affairs(DVA)","NDISPractice,MentalHealthinc.forensicAODandrefugees,AcuteCareRehab/Hospital,AssistiveTechnology,Disability,Driving,Rehabilitation"
"Adrian Harry Occupational Therapy - Barossa, Adelaide Hills, Murray Lands, Riverland, Clare Valley","Adrian Harry",,736ANGASVALLEYRD,MOUNTPLEASANT,MOU,5235,AUSTRALIA,"AgedCare(CommonwealthHomeSupportProgramme/HomeCarePackages),Aidsandequipmentschemes(stateandterritory),NDIS,LifetimeCareandSupport(ACT,SA),MAC,DepartmentofVeterans'Affairs(DVA),Medicare-ChronicDiseaseManagement,Medicare,MedicareandBetterAccesstoMentalHealth","AcuteCareRehab/Hospital,AgedCarePractice,AssistiveTechnology,Disability,CulturalCompetency,Modifications/Access,NDISPractice,NeurologicalConditions,Rehabilitation,ProfessionalSupervision,Leadership/Management,PalliativeCareandOncology,PrimaryHealth,IntellectualDisability,OtherPractice"
"Joondalup Health Campus","Amy Hart",,6KNIGHTONWAY,BUTLER,BUT,6036,AUSTRALIA,,"AcuteCareRehab/Hospital,Rehabilitation"
"Central Adelaide Local Health Network","Deborah Harvey",,ServicesArea,NORTHFIELD,NOR,5067,AUSTRALIA,"ReturntoWork(SA),Medicare-ChronicDiseaseManagement,LifetimeCareandSupport(ACT,SA),EnhancedPrimaryCare,DepartmentofVeterans'Affairs(DVA),Aidsandequipmentschemes(stateandterritory),AgedCare(CommonwealthHomeSupportProgramme/HomeCarePackages),Medicare,NDIS,Transportaccidentbodies(stateandterritory)","IntellectualDisability,ProfessionalSupervision,AcuteCareRehab/Hospital,AgedCarePractice,AssistiveTechnology,CarerandConsumerFocus,Disability,Driving,Modifications/Access,NDISPractice,NeurologicalConditions,OccupationalRehab,PrivatePracticeArea,Rehabilitation"
"Bass Coast Health","Rosemary Hennelly",,BassCoastHealth,COWES,COW,3922,AUSTRALIA,"Aidsandequipmentschemes(stateandterritory),AgedCare(CommonwealthHomeSupportProgramme/HomeCarePackages),DepartmentofVeterans'Affairs(DVA),NDIS,Medicare,MAC","IntellectualDisability,CarerandConsumerFocus,VisionImpairment,PainManagement,ProfessionalSupervision,KnowledgeTranslation,MentalHealthinc.forensicAODandrefugees,NonClinicalProfessionalDevelopment,Disability,AcuteCareRehab/Hospital,CulturalCompetency,NDISPractice,NeurologicalConditions,OH&amp;S/Ergonomics,AgedCarePractice,PalliativeCareandOncology,PrimaryHealth,AssistiveTechnology,Modifications/Access,Rehabilitation"
"Bright Eyes Therapy","Michael Henry",,,,,,,"Aidsandequipmentschemes(stateandterritory),AutismSpectrumDisorders,DepartmentofVeterans'Affairs(DVA),Medicare,Medicare-ChronicDiseaseManagement,MedicareandBetterAccesstoMentalHealth,NDIS,TAC(VIC),WorkSafe(VIC,ACT,NT,TAS),Workerscompensationschemes(stateandterritory)","AcuteCareRehab/Hospital,AssistiveTechnology,CarerandConsumerFocus,CulturalCompetency,Disability,Modifications/Access,HandTherapy/Lymphedema,NDISPractice,NeurologicalConditions,OccupationalRehab,OH&amp;S/Ergonomics,Paediatrics,PrimaryHealth,PrivatePracticeArea,Rehabilitation,Research/Education,AgedCarePractice"
"Southern Area Brain Injury Service","Levi Hick",,94BradleySt,GOULBURN,GOU,2580,AUSTRALIA,"iCare(NSW),LifetimeCareandSupport(ACT,SA),SIRA(NSW),TAC(VIC)","AcuteCareRehab/Hospital,AssistiveTechnology,Driving,Disability,IntellectualDisability,Leadership/Management,Modifications/Access,NDISPractice,NeurologicalConditions,NonClinicalProfessionalDevelopment,PolicyandProcess,Rehabilitation,OH&amp;S/Ergonomics"
"Rocky Bay","Stephanie Hickey",,ServicesArea,ASCOT,ASC,6104,AUSTRALIA,"NDIS,EnhancedPrimaryCare,MedicareandBetterAccesstoMentalHealth","MentalHealthinc.forensicAODandrefugees,NonClinicalProfessionalDevelopment,NDISPractice,AutismSpectrumDisorder,Paediatrics,Disability,PrivatePracticeArea,Research/Education,AcuteCareRehab/Hospital"
"Austin Health","Gillean Hilton",,RoyalTalbotRehabilitationCentre,KEW,KEW,3101,,"Aidsandequipmentschemes(stateandterritory),Medicare,NDIS,TAC(VIC),Workerscompensationschemes(stateandterritory)","AcuteCareRehab/Hospital,Disability,Research/Education,Rehabilitation,Modifications/Access,NDISPractice,OccupationalRehab"
"Revita - HCA","Thi Thai Thu Ho",,,,,,,"AgedCare(CommonwealthHomeSupportProgramme/HomeCarePackages),Aidsandequipmentschemes(stateandterritory),NDIS,TAC(VIC),MedicareandBetterAccesstoMentalHealth,Medicare-ChronicDiseaseManagement,Medicare,AutismSpectrumDisorders,DepartmentofVeterans'Affairs(DVA)","AgedCarePractice,PainManagement,AssistiveTechnology,AutismSpectrumDisorder,FoundationSkills,Disability,IntellectualDisability,KnowledgeTranslation,Leadership/Management,Medico-LegalPractice,Modifications/Access,NDISPractice,NeurologicalConditions,NonClinicalProfessionalDevelopment,OccupationalRehab,OH&amp;S/Ergonomics,Paediatrics,PalliativeCareandOncology,PrivatePracticeArea,Rehabilitation,Research/Education,AcuteCareRehab/Hospital,CarerandConsumerFocus,Driving,HandTherapy/Lymphedema,OtherPractice,PrimaryHealth,VisionImpairment"
"Hopscotch Occupational Therapy Services","Jessica Hodgkin",,,,,,,"AgedCare(CommonwealthHomeSupportProgramme/HomeCarePackages),AutismSpectrumDisorders,MAC,Medicare-ChronicDiseaseManagement,NDIS","AcuteCareRehab/Hospital,AutismSpectrumDisorder,Paediatrics,PrivatePracticeArea,Disability,IntellectualDisability,NDISPractice"
"South Metropolitan Health Service","Jane Hopkins",,FionaStanleyHospital102-118MurdochDrive,MURDOCH,MUR,6150,AUSTRALIA,,"AcuteCareRehab/Hospital,AgedCarePractice,CarerandConsumerFocus,PolicyandProcess,Research/Education"
"Ramsay Healthcare - Joondalup Health Campus","Melanie Hutchison",,JoondalupHealthCampusCnrShentonAvenue&amp;GrandBoulevard,JOONDALUP,JOO,6027,AUSTRALIA,,"AcuteCareRehab/Hospital,Rehabilitation,ProfessionalSupervision,PolicyandProcess,PainManagement,NeurologicalConditions,NDISPractice,Modifications/Access,MentalHealthinc.forensicAODandrefugees,Leadership/Management,KnowledgeTranslation,HandTherapy/Lymphedema,AssistiveTechnology"
"Function Therapy","Kimberley Hyslop",,22HAMILTONST,HORSHAM,HOR,3400,AUSTRALIA,Aidsandequipmentschemes(stateandterritory),"IntellectualDisability,PainManagement,VisionImpairment,KnowledgeTranslation,AcuteCareRehab/Hospital,CulturalCompetency,NeurologicalConditions,NonClinicalProfessionalDevelopment,PalliativeCareandOncology,ProfessionalSupervision,AssistiveTechnology,Disability,Modifications/Access,MentalHealthinc.forensicAODandrefugees,AgedCarePractice,PrimaryHealth,Rehabilitation,Research/Education"
"Presbyterian aged care (PAC)","Alla Inberg",,,,,,,"MAC,AutismSpectrumDisorders,Comcare,DepartmentofVeterans'Affairs(DVA),iCare(NSW),LifetimeCareandSupport(ACT,SA),MedicareandBetterAccesstoMentalHealth,NDIS,SIRA(NSW),Transportaccidentbodies(stateandterritory),Workerscompensationschemes(stateandterritory),AgedCare(CommonwealthHomeSupportProgramme/HomeCarePackages),Aidsandequipmentschemes(stateandterritory),EnhancedPrimaryCare,Medicare,Medicare-ChronicDiseaseManagement","Driving,HandTherapy/Lymphedema,Leadership/Management,NDISPractice,OccupationalRehab,PainManagement,Research/Education,Medico-LegalPractice,FoundationSkills,CarerandConsumerFocus,AutismSpectrumDisorder,AcuteCareRehab/Hospital,AssistiveTechnology,CulturalCompetency,Disability,Modifications/Access,AgedCarePractice,PrimaryHealth,Rehabilitation,OH&amp;S/Ergonomics,NeurologicalConditions"
"Coastal CIMT","Kirstin Janes",,,COOLUMBEACH,COO,4573,AUSTRALIA,"AgedCare(CommonwealthHomeSupportProgramme/HomeCarePackages),Aidsandequipmentschemes(stateandterritory),EnhancedPrimaryCare,DepartmentofVeterans'Affairs(DVA),Medicare,Transportaccidentbodies(stateandterritory),NDIS,Medicare-ChronicDiseaseManagement,Workcover(QLD,WA),Workerscompensationschemes(stateandterritory)","NeurologicalConditions,PrivatePracticeArea,Rehabilitation,AssistiveTechnology,Disability,NonClinicalProfessionalDevelopment,AgedCarePractice,NDISPractice,AcuteCareRehab/Hospital"
"Calvary Care","Eion Jennings",,StJohnsHospital30CascadeRd,SOUTHHOBART,SOU,7004,AUSTRALIA,"AgedCare(CommonwealthHomeSupportProgramme/HomeCarePackages),Aidsandequipmentschemes(stateandterritory),DepartmentofVeterans'Affairs(DVA),NDIS","AcuteCareRehab/Hospital,Disability,Modifications/Access,AgedCarePractice"
"Royal Hobart Hospital","Jennifer Johnstone",,LiverpoolStreet,HOBART,HOB,7000,AUSTRALIA,,"AcuteCareRehab/Hospital,PalliativeCareandOncology"
"Alfred Health","Laura Jolliffe",,,,,,,,"Research/Education,AcuteCareRehab/Hospital,NeurologicalConditions,Rehabilitation"
"Dubbo Hospital","Roy Jorda",,POBox739,DUBBO,DUB,2830,AUSTRALIA,DepartmentofVeterans'Affairs(DVA),"Modifications/Access,AcuteCareRehab/Hospital,Rehabilitation"
"Life Ready Physio + Mobile","Lauren Kay",,,,,,,"DepartmentofVeterans'Affairs(DVA),AgedCare(CommonwealthHomeSupportProgramme/HomeCarePackages),Aidsandequipmentschemes(stateandterritory),AutismSpectrumDisorders,NDIS","AcuteCareRehab/Hospital,AgedCarePractice,PainManagement,Rehabilitation,AssistiveTechnology,AutismSpectrumDisorder,Disability,IntellectualDisability,MentalHealthinc.forensicAODandrefugees,NDISPractice,NeurologicalConditions,Paediatrics,CarerandConsumerFocus,FoundationSkills,HandTherapy/Lymphedema"
"OT Country Care","Anita Kent",,7CarpentariaWay,HEWETT,HEW,5118,AUSTRALIA,,"AssistiveTechnology,AcuteCareRehab/Hospital,Disability,NDISPractice,Modifications/Access,NeurologicalConditions,Rehabilitation"
"Nowra Private Hospital","Margaret Kirk",,POBox1016,NOWRA,NOW,2541,AUSTRALIA,"DepartmentofVeterans'Affairs(DVA),Workcover(QLD,WA),Transportaccidentbodies(stateandterritory)",AcuteCareRehab/Hospital
"Sandra Kirkwood B. Occ.Thy, B. Music, M.Phil, Grad Cert Education","Sandra Kirkwood",,,IPSWICH,IPS,4306,AUSTRALIA,"MedicareandBetterAccesstoMentalHealth,Aidsandequipmentschemes(stateandterritory),AutismSpectrumDisorders,EnhancedPrimaryCare,Medicare-ChronicDiseaseManagement,NDIS,DepartmentofVeterans'Affairs(DVA),BetterAccesstoMentalHealth(BAMH)Endorsed","VisionImpairment,NDISPractice,NeurologicalConditions,Modifications/Access,IntellectualDisability,Disability,CulturalCompetency,CarerandConsumerFocus,AutismSpectrumDisorder,AssistiveTechnology,PalliativeCareandOncology,PrimaryHealth,Rehabilitation,ProfessionalSupervision,PrivatePracticeArea,PolicyandProcess,OtherPractice,NonClinicalProfessionalDevelopment,AcuteCareRehab/Hospital,Paediatrics,Research/Education"
"Central Adelaide Local Health Network","Tracey Kroon",,"GlensideHealthServices,RoyalAdelaideHospital",ADELAIDE,ADE,5000,AUSTRALIA,"NDIS,Medicare,LifetimeCareandSupport(ACT,SA),AgedCare(CommonwealthHomeSupportProgramme/HomeCarePackages)","AcuteCareRehab/Hospital,Disability,Leadership/Management,NDISPractice,NeurologicalConditions,MentalHealthinc.forensicAODandrefugees,PolicyandProcess,ProfessionalSupervision,Driving,Research/Education,AssistiveTechnology,Modifications/Access,Rehabilitation,PrimaryHealth"
"Darwin Private Hospital","Kar Mun (Carmen) Lai",,ROCKLANDSDR,TIWI,TIW,0810,AUSTRALIA,"NDIS,Medicare,Aidsandequipmentschemes(stateandterritory),EnhancedPrimaryCare,Workerscompensationschemes(stateandterritory),DepartmentofVeterans'Affairs(DVA)","PrivatePracticeArea,CulturalCompetency,AssistiveTechnology,NDISPractice,Research/Education,Disability,MentalHealthinc.forensicAODandrefugees,PalliativeCareandOncology,PainManagement,Rehabilitation,HandTherapy/Lymphedema,AgedCarePractice,AcuteCareRehab/Hospital"
"Flinders University","Kate Laver",,FlindersUniversityFlindersDrive,BEDFORDPARK,BED,5042,AUSTRALIA,,"Rehabilitation,AcuteCareRehab/Hospital,CarerandConsumerFocus,CulturalCompetency,NeurologicalConditions,AgedCarePractice,Paediatrics,Research/Education"
"Fiona Stanley Hospital","Jessica Legg",,,,,,,,"AcuteCareRehab/Hospital,AssistiveTechnology,PrivatePracticeArea,Modifications/Access"
"Austin Health","Dianne Legge",,ONJCentre145StudleyRoad,HEIDELBERG,HEI,3084,AUSTRALIA,,"CarerandConsumerFocus,AcuteCareRehab/Hospital,NeurologicalConditions,PalliativeCareandOncology"
"Plena Healthcare","Hoi Lam Li",,"Level9/417StKildaRd,MelbourneVIC3004",MELBOURNE,MEL,3004,AUSTRALIA,"AgedCare(CommonwealthHomeSupportProgramme/HomeCarePackages),Aidsandequipmentschemes(stateandterritory),AutismSpectrumDisorders,NDIS,Medicare","Rehabilitation,AssistiveTechnology,AutismSpectrumDisorder,Disability,PainManagement,AgedCarePractice,AcuteCareRehab/Hospital,NDISPractice"
"Li OT Services","Li Li",,Unit613582StKildaRoad,MELBOURNE,MEL,3004,AUSTRALIA,"WorkSafe(VIC,ACT,NT,TAS),Transportaccidentbodies(stateandterritory),AgedCare(CommonwealthHomeSupportProgramme/HomeCarePackages),Aidsandequipmentschemes(stateandterritory),Comcare,Medicare,Medicare-ChronicDiseaseManagement,NDIS,TAC(VIC),Workerscompensationschemes(stateandterritory)","FoundationSkills,VisionImpairment,AgedCarePractice,CarerandConsumerFocus,KnowledgeTranslation,NonClinicalProfessionalDevelopment,PrivatePracticeArea,Modifications/Access,AcuteCareRehab/Hospital,NDISPractice,NeurologicalConditions,Research/Education,CulturalCompetency,IntellectualDisability,PainManagement,PrimaryHealth,ProfessionalSupervision,AssistiveTechnology,Disability,Rehabilitation,OH&amp;S/Ergonomics"
"Will & Way Therapy Services","Kirsty Liddle",,,GEELONG,GEE,3220,AUSTRALIA,,"AcuteCareRehab/Hospital,HandTherapy/Lymphedema,Rehabilitation"
"Global Rehabilitation Service","Fang Ying Lim",,202/206ArcherSt,CHATSWOOD,CHA,2067,AUSTRALIA,,"AcuteCareRehab/Hospital,Disability,CulturalCompetency,AssistiveTechnology,Modifications/Access,NDISPractice,NeurologicalConditions,OccupationalRehab,PrivatePracticeArea,Rehabilitation,Research/Education"
"Wellwise OT","Jessica Lim",,,,,,,"Aidsandequipmentschemes(stateandterritory),EnhancedPrimaryCare,NDIS,Medicare,Medicare-ChronicDiseaseManagement,MedicareandBetterAccesstoMentalHealth","NeurologicalConditions,MentalHealthinc.forensicAODandrefugees,IntellectualDisability,OtherPractice,CulturalCompetency,Research/Education,AcuteCareRehab/Hospital,PrivatePracticeArea,OccupationalRehab,NDISPractice,Modifications/Access,AutismSpectrumDisorder,AssistiveTechnology,CarerandConsumerFocus,PainManagement,Paediatrics,Rehabilitation,Disability,OH&amp;S/Ergonomics"
"Sydney Adventist Hospital","Kate Linnet",,185FOXVALLEYROAD,WAHROONGA,WAH,2076,AUSTRALIA,,"AcuteCareRehab/Hospital,AgedCarePractice,CarerandConsumerFocus,NeurologicalConditions,PalliativeCareandOncology,Rehabilitation,VisionImpairment"
"Western Sydney University","Karen Liu",,,,,,,,"Rehabilitation,Modifications/Access,PrimaryHealth,Paediatrics,Research/Education,OH&amp;S/Ergonomics,AcuteCareRehab/Hospital,NeurologicalConditions,Disability,Driving,AssistiveTechnology"
"Royal Perth Hospital","Patti Luker",,WellingtonStreet,PERTH,PER,6000,AUSTRALIA,,AcuteCareRehab/Hospital
"NeuroRehab Allied Health Network","Thuy Tien Luong",,3CanterburyStreet,DEERPARK,DEE,3023,AUSTRALIA,"AgedCare(CommonwealthHomeSupportProgramme/HomeCarePackages),Aidsandequipmentschemes(stateandterritory),Comcare,Medicare,Medicare-ChronicDiseaseManagement,MedicareandBetterAccesstoMentalHealth,NDIS,TAC(VIC),Transportaccidentbodies(stateandterritory),Workerscompensationschemes(stateandterritory),WorkSafe(VIC,ACT,NT,TAS)","AcuteCareRehab/Hospital,AgedCarePractice,AssistiveTechnology,CulturalCompetency,Disability,FoundationSkills,Modifications/Access,NDISPractice,NeurologicalConditions,NonClinicalProfessionalDevelopment,OtherPractice,PainManagement,Rehabilitation,Research/Education,HandTherapy/Lymphedema,VisionImpairment"
"Thrive Health Centre - Port Pirie","Madeline Magor",,32WANDEARAHRD,PORTPIRIESOUTH,POR,5540,AUSTRALIA,"Medicare,AgedCare(CommonwealthHomeSupportProgramme/HomeCarePackages),NDIS","MentalHealthinc.forensicAODandrefugees,OccupationalRehab,AgedCarePractice,AcuteCareRehab/Hospital,AutismSpectrumDisorder,Disability,NDISPractice,PrivatePracticeArea"
"Werribee Mercy Hospital","Ingrid Maine",0398538655,"WerribeeMercyHospitalContinuingCareCentreHIPCBR300-310PrincesHwy,",WERRIBEE,WER,3030,AUSTRALIA,,"AcuteCareRehab/Hospital,PainManagement,AssistiveTechnology,NeurologicalConditions,AgedCarePractice,Rehabilitation,Research/Education"
"Bowral Hospital","Sarah Majarich",,BOWRALST,BOWRAL,BOW,2576,AUSTRALIA,"Medicare,Aidsandequipmentschemes(stateandterritory),AgedCare(CommonwealthHomeSupportProgramme/HomeCarePackages)","HandTherapy/Lymphedema,AgedCarePractice,PalliativeCareandOncology,PrivatePracticeArea,AssistiveTechnology,AcuteCareRehab/Hospital,ProfessionalSupervision"
"East Metro Health Service WA (Royal Perth Hospital)","Kahli Masini",,WELLINGTONST,PERTH,PER,6000,AUSTRALIA,,"AcuteCareRehab/Hospital,HandTherapy/Lymphedema,PainManagement,NeurologicalConditions"
"Rochester and Elmore District Health Service","Jacinta Masters",,,,,,,"AgedCare(CommonwealthHomeSupportProgramme/HomeCarePackages),MAC,Medicare,DepartmentofVeterans'Affairs(DVA)","ProfessionalSupervision,PainManagement,PalliativeCareandOncology,AcuteCareRehab/Hospital,Disability,Modifications/Access,NDISPractice,AgedCarePractice,PrimaryHealth,Research/Education"
"Greenwich Hospital","Kate Matthews",,97-115RIVERROAD,GREENWICH,GRE,2065,AUSTRALIA,,"AgedCarePractice,AcuteCareRehab/Hospital,NeurologicalConditions,PalliativeCareandOncology,Rehabilitation,AssistiveTechnology,AutismSpectrumDisorder,CarerandConsumerFocus,CulturalCompetency,Disability,Driving,FoundationSkills,IntellectualDisability,HandTherapy/Lymphedema,KnowledgeTranslation,Leadership/Management,Medico-LegalPractice,MentalHealthinc.forensicAODandrefugees,Modifications/Access,NDISPractice,NonClinicalProfessionalDevelopment,OccupationalRehab,OH&amp;S/Ergonomics,OtherPractice,Paediatrics,PainManagement,PolicyandProcess,PrimaryHealth,PrivatePracticeArea,ProfessionalSupervision,Research/Education,VisionImpairment"
"Barwon Health Occupational Therapy Department","Judith McKenzie",,Bellarinest,GEELONG,GEE,3221,AUSTRALIA,,AcuteCareRehab/Hospital
"University of South Australia","Sarah McMullen-Roach",,CityEastCampus,ADELAIDE,ADE,5000,AUSTRALIA,"AgedCare(CommonwealthHomeSupportProgramme/HomeCarePackages),Aidsandequipmentschemes(stateandterritory),DepartmentofVeterans'Affairs(DVA),MAC,NDIS","AcuteCareRehab/Hospital,AgedCarePractice,KnowledgeTranslation,Leadership/Management,NonClinicalProfessionalDevelopment,ProfessionalSupervision,Modifications/Access,Research/Education,Rehabilitation"
"A.I.M Allied Health Services","Amie Meads",,POBox963,WANGARATTA,WAN,3676,AUSTRALIA,"WorkSafe(VIC,ACT,NT,TAS),AgedCare(CommonwealthHomeSupportProgramme/HomeCarePackages),DepartmentofVeterans'Affairs(DVA),TAC(VIC)","KnowledgeTranslation,Leadership/Management,Disability,Rehabilitation,AgedCarePractice,AcuteCareRehab/Hospital,PrivatePracticeArea,Research/Education,AssistiveTechnology,Modifications/Access"
"James Cook University","Elizabeth Meechan",,,,,,,,"AcuteCareRehab/Hospital,CulturalCompetency,NeurologicalConditions,Research/Education"
"Holistic Healthcare Solutions","Belinda Melchert",,2SWALESSTREET,MUNDINGBURRA,MUN,4812,AUSTRALIA,"NDIS,MedicareandBetterAccesstoMentalHealth,Medicare-ChronicDiseaseManagement,EnhancedPrimaryCare,Comcare,Aidsandequipmentschemes(stateandterritory),DepartmentofVeterans'Affairs(DVA),Workcover(QLD,WA),AgedCare(CommonwealthHomeSupportProgramme/HomeCarePackages),BetterAccesstoMentalHealth(BAMH)Endorsed","AcuteCareRehab/Hospital,AgedCarePractice,AssistiveTechnology,AutismSpectrumDisorder,CarerandConsumerFocus,CulturalCompetency,Disability,Driving,FoundationSkills,HandTherapy/Lymphedema,Medico-LegalPractice,Leadership/Management,KnowledgeTranslation,IntellectualDisability,MentalHealthinc.forensicAODandrefugees,Modifications/Access,NDISPractice,NeurologicalConditions,NonClinicalProfessionalDevelopment,OccupationalRehab,OtherPractice,Paediatrics,PainManagement,PalliativeCareandOncology,PrimaryHealth,PrivatePracticeArea,ProfessionalSupervision,VisionImpairment,Research/Education,Rehabilitation"
"Silver Chain","Pamela Mino",,LakesRoad,GREENFIELDS,GRE,6210,AUSTRALIA,"AgedCare(CommonwealthHomeSupportProgramme/HomeCarePackages),MAC","AcuteCareRehab/Hospital,AgedCarePractice,AssistiveTechnology,CulturalCompetency,HandTherapy/Lymphedema,Modifications/Access,NeurologicalConditions,PrimaryHealth,Rehabilitation,OccupationalRehab,KnowledgeTranslation,IntellectualDisability,FoundationSkills,Driving,MentalHealthinc.forensicAODandrefugees,OH&amp;S/Ergonomics,OtherPractice,VisionImpairment"
"Murrumbidgee Local Health District","Cassandra Mullins",0488181373,48BurnsStreet,HILLSTON,HIL,2675,AUSTRALIA,,"Modifications/Access,Paediatrics,Disability,AcuteCareRehab/Hospital,CulturalCompetency,HandTherapy/Lymphedema,NDISPractice,AgedCarePractice,PalliativeCareandOncology,Rehabilitation,OH&amp;S/Ergonomics,AssistiveTechnology,PrimaryHealth"
"Total Access","Jennifer Nicholls",,ServicesArea,CHIFLEY,CHI,2036,AUSTRALIA,NDIS,"Rehabilitation,AcuteCareRehab/Hospital,AssistiveTechnology,Modifications/Access,Disability"
"https://www.praktis.com.au -","Nicole Nott",,27SydenhamRoadNorwoodSA5067,NORWOOD,NOR,5067,AUSTRALIA,"LifetimeCareandSupport(ACT,SA),MAC,ReturntoWork(SA),WorkSafe(VIC,ACT,NT,TAS),iCare(NSW),MedicareandBetterAccesstoMentalHealth,SIRA(NSW),AgedCare(CommonwealthHomeSupportProgramme/HomeCarePackages),Aidsandequipmentschemes(stateandterritory),AutismSpectrumDisorders,Comcare,DepartmentofVeterans'Affairs(DVA),EnhancedPrimaryCare,Medicare,Medicare-ChronicDiseaseManagement,NDIS,TAC(VIC),Transportaccidentbodies(stateandterritory),Workcover(QLD,WA),Workerscompensationschemes(stateandterritory)","Leadership/Management,Medico-LegalPractice,NonClinicalProfessionalDevelopment,PalliativeCareandOncology,PolicyandProcess,ProfessionalSupervision,VisionImpairment,AutismSpectrumDisorder,IntellectualDisability,CarerandConsumerFocus,CommunicationsPartner(SA)-AccreditationRequired,CulturalCompetency,MentalHealthinc.forensicAODandrefugees,OtherPractice,PainManagement,Research/Education,Modifications/Access,OH&amp;S/Ergonomics,Rehabilitation,AcuteCareRehab/Hospital,AssistiveTechnology,Driving,Disability,HandTherapy/Lymphedema,NDISPractice,NeurologicalConditions,OccupationalRehab,AgedCarePractice,Paediatrics,PrimaryHealth,PrivatePracticeArea"
"Feel Well 4 You","Lynelda Nurzynski",,,HEMMANT,HEM,4174,AUSTRALIA,NDIS,"AcuteCareRehab/Hospital,NDISPractice,Research/Education"
"Cabrini Health","Molly O'Halloran",,494GLENHUNTLYROAD,ELSTERNWICK,ELS,3185,AUSTRALIA,,AcuteCareRehab/Hospital
"Synapse Rehab","Joseph June Omo",,6WallowaDrive,SWANHILL,SWA,3585,AUSTRALIA,"DepartmentofVeterans'Affairs(DVA),EnhancedPrimaryCare,NDIS,WorkSafe(VIC,ACT,NT,TAS),TAC(VIC)","AcuteCareRehab/Hospital,AssistiveTechnology,Disability,HandTherapy/Lymphedema,Modifications/Access,NDISPractice,NeurologicalConditions,PrimaryHealth,PrivatePracticeArea,Rehabilitation,PainManagement,OccupationalRehab,OH&amp;S/Ergonomics,Research/Education"
"NSW Health SWSLHD","Amanda Oram",,POBox268,BOWRAL,BOW,2576,AUSTRALIA,"AgedCare(CommonwealthHomeSupportProgramme/HomeCarePackages),Aidsandequipmentschemes(stateandterritory),MAC","AcuteCareRehab/Hospital,AssistiveTechnology,Disability,Modifications/Access,HandTherapy/Lymphedema,AgedCarePractice,PalliativeCareandOncology,PrimaryHealth,CarerandConsumerFocus"
"Mobility Caring","Alice Paredes",,8PRINCEWILLIAMDR,SEVENHILLS,SEV,2147,AUSTRALIA,"AgedCare(CommonwealthHomeSupportProgramme/HomeCarePackages),Aidsandequipmentschemes(stateandterritory),AutismSpectrumDisorders,Comcare,EnhancedPrimaryCare,iCare(NSW),LifetimeCareandSupport(ACT,SA),MAC,Medicare,Medicare-ChronicDiseaseManagement,NDIS,SIRA(NSW),DepartmentofVeterans'Affairs(DVA),WorkSafe(VIC,ACT,NT,TAS),Workerscompensationschemes(stateandterritory),MedicareandBetterAccesstoMentalHealth,TAC(VIC),Transportaccidentbodies(stateandterritory),Workcover(QLD,WA),ReturntoWork(SA)","AssistiveTechnology,Disability,Modifications/Access,OccupationalRehab,AcuteCareRehab/Hospital,AgedCarePractice,AutismSpectrumDisorder,CarerandConsumerFocus,CommunicationsPartner(SA)-AccreditationRequired,CulturalCompetency,Driving,FoundationSkills,HandTherapy/Lymphedema,IntellectualDisability,KnowledgeTranslation,Leadership/Management,Medico-LegalPractice,MentalHealthinc.forensicAODandrefugees,NDISPractice,NeurologicalConditions,NonClinicalProfessionalDevelopment,OH&amp;S/Ergonomics,OtherPractice,Paediatrics,PainManagement,PalliativeCareandOncology,PolicyandProcess,PrimaryHealth,PrivatePracticeArea,ProfessionalSupervision,Rehabilitation,Research/Education,VisionImpairment"
"Harmony Allied Health","Sally Pearman",,,GORDON,GOR,2072,AUSTRALIA,"Medicare-ChronicDiseaseManagement,MedicareandBetterAccesstoMentalHealth,NDIS,Medicare","AcuteCareRehab/Hospital,AgedCarePractice,AssistiveTechnology,Disability,FoundationSkills,IntellectualDisability,Leadership/Management,NDISPractice,NonClinicalProfessionalDevelopment,PolicyandProcess,PrivatePracticeArea,ProfessionalSupervision,Rehabilitation,Paediatrics"
"St Vincent's Private Hospital & St Vincent's Public Hospital Melbourne","Jessica Perera",,59VictoriaParade,FITZROY,FIT,3065,AUSTRALIA,"AgedCare(CommonwealthHomeSupportProgramme/HomeCarePackages),DepartmentofVeterans'Affairs(DVA),Medicare,Medicare-ChronicDiseaseManagement,Transportaccidentbodies(stateandterritory)","PalliativeCareandOncology,ProfessionalSupervision,Research/Education,VisionImpairment,AssistiveTechnology,PrimaryHealth,Disability,Modifications/Access,Driving,AcuteCareRehab/Hospital,HandTherapy/Lymphedema,NeurologicalConditions,AgedCarePractice,Rehabilitation,OH&amp;S/Ergonomics"
"Gippsland Southern Health Service","Olivia Perryman",,66KoonwarraRoad,LEONGATHA,LEO,3953,AUSTRALIA,"AgedCare(CommonwealthHomeSupportProgramme/HomeCarePackages),Aidsandequipmentschemes(stateandterritory),MAC,Medicare,NDIS,TAC(VIC),Workcover(QLD,WA),WorkSafe(VIC,ACT,NT,TAS)","AgedCarePractice,AcuteCareRehab/Hospital,IntellectualDisability,Disability,Modifications/Access,NeurologicalConditions,PalliativeCareandOncology,Rehabilitation,ProfessionalSupervision,OccupationalRehab,NDISPractice"
"Steps Neurological Therapy","Sophie Phare",,33WarrigalRoad,HUGHESDALE,HUG,3166,AUSTRALIA,"WorkSafe(VIC,ACT,NT,TAS),Comcare,Aidsandequipmentschemes(stateandterritory),AgedCare(CommonwealthHomeSupportProgramme/HomeCarePackages),DepartmentofVeterans'Affairs(DVA),Medicare,MAC,TAC(VIC),NDIS","AcuteCareRehab/Hospital,NDISPractice,PainManagement,PrivatePracticeArea,ProfessionalSupervision,VisionImpairment,Leadership/Management,KnowledgeTranslation,IntellectualDisability,HandTherapy/Lymphedema,AssistiveTechnology,AgedCarePractice,Modifications/Access,NeurologicalConditions,Rehabilitation,Disability"
"ActivOT Adelaide Hills","Sarah Posaner",,POBox5,BRIDGEWATER,BRI,5155,AUSTRALIA,"DepartmentofVeterans'Affairs(DVA),AgedCare(CommonwealthHomeSupportProgramme/HomeCarePackages),Medicare,Medicare-ChronicDiseaseManagement,NDIS,EnhancedPrimaryCare","AcuteCareRehab/Hospital,AgedCarePractice,Disability,NDISPractice,Modifications/Access,NeurologicalConditions,PrivatePracticeArea,Rehabilitation,AssistiveTechnology"
"Osborne Park Hospital","Anne Pressley",,OSBORNEPL,STIRLING,STI,6021,AUSTRALIA,"Medicare,MAC,AgedCare(CommonwealthHomeSupportProgramme/HomeCarePackages)","AgedCarePractice,AcuteCareRehab/Hospital"
"Barefoot Therapists Child and Family Team","Kristen Pringle",,356SHANDSROAD,MAINRIDGE,MAI,3928,AUSTRALIA,"MedicareandBetterAccesstoMentalHealth,WorkSafe(VIC,ACT,NT,TAS),EnhancedPrimaryCare,AutismSpectrumDisorders,DepartmentofVeterans'Affairs(DVA),Medicare,Medicare-ChronicDiseaseManagement,NDIS,TAC(VIC),Transportaccidentbodies(stateandterritory),Workerscompensationschemes(stateandterritory),BetterAccesstoMentalHealth(BAMH)Endorsed","Leadership/Management,NDISPractice,NonClinicalProfessionalDevelopment,ProfessionalSupervision,AutismSpectrumDisorder,AcuteCareRehab/Hospital,IntellectualDisability,NeurologicalConditions,PainManagement,PrimaryHealth,Research/Education,Rehabilitation,PrivatePracticeArea,CarerandConsumerFocus,MentalHealthinc.forensicAODandrefugees,OtherPractice,Disability,Paediatrics"
"Abilities OT Service - Barossa Valley, Mid and Lower North, Yorke Peninsula, Northern Metro, Gawler, Port Augusta, Whyalla, Bordertown and South East South Australia","Skye Quin",,3-4FifeStreet,ANGASTON,ANG,5353,AUSTRALIA,"AgedCare(CommonwealthHomeSupportProgramme/HomeCarePackages),DepartmentofVeterans'Affairs(DVA),ReturntoWork(SA),iCare(NSW),LifetimeCareandSupport(ACT,SA),NDIS,Workerscompensationschemes(stateandterritory),Transportaccidentbodies(stateandterritory)","AcuteCareRehab/Hospital,AgedCarePractice,AssistiveTechnology,NDISPractice,Leadership/Management,Medico-LegalPractice,Disability,Rehabilitation,NeurologicalConditions,PrivatePracticeArea,Modifications/Access"
"ZEN Occupational Therapy","Tara Quinn",,33BendigoCres,TALLAI,TAL,4213,AUSTRALIA,NDIS,"AcuteCareRehab/Hospital,AgedCarePractice,AssistiveTechnology,Disability,Modifications/Access,NDISPractice,NeurologicalConditions,PalliativeCareandOncology,Rehabilitation"
"Bernadette Collins Occupational Therapy, Lismore (North East NSW)","Colleen Reilly",,6StocksSt,EASTLISMORE,EAS,2480,AUSTRALIA,"AgedCare(CommonwealthHomeSupportProgramme/HomeCarePackages),DepartmentofVeterans'Affairs(DVA),NDIS","Driving,AgedCarePractice,PalliativeCareandOncology,AcuteCareRehab/Hospital"
"OT Department, Queensland Children's Hospital, Children's Health Queensland  - -","Sonia Riley",,501StanleySt,SOUTHBRISBANE,SOU,4101,AUSTRALIA,,"Paediatrics,AcuteCareRehab/Hospital"
"South Metro Health Service WA (Royal Perth Hospital) -","Kellie Rivers-Malet",,ALMASTREET,FREMANTLE,FRE,6160,AUSTRALIA,"NDIS,AgedCare(CommonwealthHomeSupportProgramme/HomeCarePackages),Aidsandequipmentschemes(stateandterritory),MAC","AcuteCareRehab/Hospital,NeurologicalConditions,Rehabilitation"
"University of South Australia","Alice Roberts-Thomson",,,ADELAIDE,ADE,,AUSTRALIA,"MAC,AgedCare(CommonwealthHomeSupportProgramme/HomeCarePackages),Aidsandequipmentschemes(stateandterritory),DepartmentofVeterans'Affairs(DVA),Medicare,Medicare-ChronicDiseaseManagement","PainManagement,ProfessionalSupervision,Rehabilitation,AcuteCareRehab/Hospital,Disability,HandTherapy/Lymphedema,NeurologicalConditions,AgedCarePractice,Research/Education"
"Latrobe Regional Hospital","Megan Rumble",,10VILLAGEAVENUE,TRARALGON,TRA,3844,AUSTRALIA,TAC(VIC),AcuteCareRehab/Hospital
"Christine Saccardo - Occupational Therapist","Christine Saccardo",,POBox1200,MIDDLECAMBERWELL,MID,3124,AUSTRALIA,"Aidsandequipmentschemes(stateandterritory),DepartmentofVeterans'Affairs(DVA)","AcuteCareRehab/Hospital,AgedCarePractice,PrivatePracticeArea,Modifications/Access"
"Flex Out Physiotherapy and Healthcare","Jye Savage",,"Suit2,Level2,TheGardens470WodongaPl",ALBURY,ALB,2640,AUSTRALIA,"AgedCare(CommonwealthHomeSupportProgramme/HomeCarePackages),Comcare,DepartmentofVeterans'Affairs(DVA),EnhancedPrimaryCare,iCare(NSW),Medicare-ChronicDiseaseManagement,NDIS,SIRA(NSW),TAC(VIC),Transportaccidentbodies(stateandterritory),Workerscompensationschemes(stateandterritory),WorkSafe(VIC,ACT,NT,TAS)","AcuteCareRehab/Hospital,Driving,HandTherapy/Lymphedema"
Engedi,"Pauline Sayce-Hight",,,,,,,,"Rehabilitation,ProfessionalSupervision,NeurologicalConditions,Modifications/Access,Disability,AssistiveTechnology,AgedCarePractice,AcuteCareRehab/Hospital,PalliativeCareandOncology,CulturalCompetency"
"Alfred Health","Emma Schneider",,55CommercialRoad,MELBOURNE,MEL,3004,AUSTRALIA,,"AcuteCareRehab/Hospital,KnowledgeTranslation,NeurologicalConditions,Research/Education,Rehabilitation"
"ActivOT - Kangaroo Island","Tessa Shalay",,1CampbellSt,KINGSCOTE,KIN,5220,AUSTRALIA,"AgedCare(CommonwealthHomeSupportProgramme/HomeCarePackages),DepartmentofVeterans'Affairs(DVA),NDIS,Aidsandequipmentschemes(stateandterritory),Medicare-ChronicDiseaseManagement","AcuteCareRehab/Hospital,AssistiveTechnology,Disability,Modifications/Access,NDISPractice,PainManagement,PalliativeCareandOncology,PrivatePracticeArea,Rehabilitation,VisionImpairment"
"Calvary Adelaide Hospital","Kendall Shearer",,120AngusStreet,ADELAIDE,ADE,5000,AUSTRALIA,"Workcover(QLD,WA),Medicare-ChronicDiseaseManagement,Workerscompensationschemes(stateandterritory),Transportaccidentbodies(stateandterritory),TAC(VIC),DepartmentofVeterans'Affairs(DVA)","AcuteCareRehab/Hospital,HandTherapy/Lymphedema,NeurologicalConditions,Rehabilitation,Driving"
"Brunswick Private Hospital","Safeera Sheik Amod",,82MORELANDROAD,BRUNSWICK,BRU,3056,AUSTRALIA,"DepartmentofVeterans'Affairs(DVA),NDIS,TAC(VIC),Medicare,WorkSafe(VIC,ACT,NT,TAS)","PalliativeCareandOncology,PainManagement,ProfessionalSupervision,Research/Education,Leadership/Management,Rehabilitation,AcuteCareRehab/Hospital,NeurologicalConditions"
"Alfred Health","Judy Shepherd",,CommercialRoad,PRAHRAN,PRA,3181,AUSTRALIA,"Aidsandequipmentschemes(stateandterritory),TAC(VIC),NDIS,Workerscompensationschemes(stateandterritory)","Driving,PrimaryHealth,AcuteCareRehab/Hospital"
"mOTivational Occupational Therapy","Cassandra Smith",,,GOLDCOAST,GOL,4212,AUSTRALIA,"AgedCare(CommonwealthHomeSupportProgramme/HomeCarePackages),Aidsandequipmentschemes(stateandterritory),AutismSpectrumDisorders,DepartmentofVeterans'Affairs(DVA),Medicare,MedicareandBetterAccesstoMentalHealth,NDIS,Workcover(QLD,WA)","AcuteCareRehab/Hospital,AgedCarePractice,AssistiveTechnology,AutismSpectrumDisorder,Disability,IntellectualDisability,Modifications/Access,NDISPractice,Paediatrics,PainManagement,PrivatePracticeArea,Rehabilitation"
"Newcastle Occupational Therapy Practice","Bridget Sneesby",,,TIGHESHILL,TIG,2297,AUSTRALIA,"Medicare-ChronicDiseaseManagement,NDIS,EnhancedPrimaryCare","AcuteCareRehab/Hospital,AutismSpectrumDisorder,Disability,Driving,IntellectualDisability,Modifications/Access,NDISPractice,NeurologicalConditions,Rehabilitation"
"Amanda Stafford, Occupational Therapist","Amanda Stafford",,,MORUYA,MOR,2537,AUSTRALIA,"AgedCare(CommonwealthHomeSupportProgramme/HomeCarePackages),NDIS","PrivatePracticeArea,Rehabilitation,AssistiveTechnology,AcuteCareRehab/Hospital,Modifications/Access,NDISPractice,Disability,NeurologicalConditions,AgedCarePractice"
"Nicole Stewart - Occupational Therapy and Professional Supervision","Nicole Stewart",,,,,,,"DepartmentofVeterans'Affairs(DVA),Medicare,MAC,NDIS","Leadership/Management,AssistiveTechnology,ProfessionalSupervision,Rehabilitation,PrimaryHealth,AcuteCareRehab/Hospital,Modifications/Access,MentalHealthinc.forensicAODandrefugees,AgedCarePractice"
"West Gippsland Healthcare Group","Rainy Streeter-Gillard",,41LandsboroughStreet,WARRAGUL,WAR,3820,AUSTRALIA,,AcuteCareRehab/Hospital
"Beyond Boundaries Rehab Pty Ltd","Krystal Sullivan",,,,,,,"MAC,AgedCare(CommonwealthHomeSupportProgramme/HomeCarePackages),Aidsandequipmentschemes(stateandterritory),DepartmentofVeterans'Affairs(DVA),iCare(NSW),NDIS","AcuteCareRehab/Hospital,AssistiveTechnology,NDISPractice,Modifications/Access,NeurologicalConditions,Rehabilitation"
"St Vincents Private","Daliah Sztokman",,59GREYST,EASTMELBOURNE,EAS,3002,AUSTRALIA,"AgedCare(CommonwealthHomeSupportProgramme/HomeCarePackages),Aidsandequipmentschemes(stateandterritory),DepartmentofVeterans'Affairs(DVA),MAC,NDIS,TAC(VIC),WorkSafe(VIC,ACT,NT,TAS),EnhancedPrimaryCare,Medicare","AcuteCareRehab/Hospital,PalliativeCareandOncology,PrimaryHealth,Rehabilitation,OH&amp;S/Ergonomics,Modifications/Access,NDISPractice,AssistiveTechnology,AgedCarePractice,Disability,Leadership/Management,PrivatePracticeArea"
"SMART, Westmead Hospital","Antoinette Taouil",,CornerDarcyandHawkesburyRoads,WESTMEAD,WES,2145,AUSTRALIA,,"AcuteCareRehab/Hospital,AssistiveTechnology,Rehabilitation"
"Royal Hobart Hospital - MENTAL HEALTH ACUTE INPATIENT UNIT","Bojana Tatarevic Veryard",,48LIVERPOOLST,HOBART,HOB,7000,AUSTRALIA,"Medicare,NDIS","MentalHealthinc.forensicAODandrefugees,NDISPractice,AcuteCareRehab/Hospital,AssistiveTechnology,CarerandConsumerFocus,CulturalCompetency,Disability,KnowledgeTranslation,Medico-LegalPractice,NeurologicalConditions,NonClinicalProfessionalDevelopment,PainManagement,ProfessionalSupervision,Research/Education"
"Stroke SA / Parkinson's SA","Hannah Tavian",,25KingWilliamRoad,UNLEY,UNL,5061,AUSTRALIA,"NDIS,Medicare,Medicare-ChronicDiseaseManagement,MedicareandBetterAccesstoMentalHealth,MAC,AutismSpectrumDisorders,AgedCare(CommonwealthHomeSupportProgramme/HomeCarePackages)","CarerandConsumerFocus,KnowledgeTranslation,NeurologicalConditions,PalliativeCareandOncology,PainManagement,Rehabilitation,MentalHealthinc.forensicAODandrefugees,Paediatrics,OccupationalRehab,OH&amp;S/Ergonomics,PrimaryHealth,AcuteCareRehab/Hospital,AssistiveTechnology,AutismSpectrumDisorder,Disability,Driving,IntellectualDisability,NDISPractice,Modifications/Access"
"Spinal Care OT Services","Sandra Taylor",,ServicesArea,TORQUAY,TOR,3228,AUSTRALIA,"TAC(VIC),WorkSafe(VIC,ACT,NT,TAS)","Medico-LegalPractice,Rehabilitation,PrivatePracticeArea,NeurologicalConditions,AgedCarePractice,Modifications/Access,AcuteCareRehab/Hospital,OH&amp;S/Ergonomics"
"PIVOT OT Services","Natarsha Taylor-Fick",,17PrinceEdwardStreet,GLADESVILLE,GLA,2111,AUSTRALIA,"iCare(NSW),SIRA(NSW),Transportaccidentbodies(stateandterritory)","Medico-LegalPractice,Disability,AssistiveTechnology,NeurologicalConditions,PainManagement,AcuteCareRehab/Hospital,OH&amp;S/Ergonomics,PrivatePracticeArea,OccupationalRehab,Rehabilitation"
"Tashacare Australia","Tori Thomas",,,,,,,"TAC(VIC),Transportaccidentbodies(stateandterritory),NDIS,Medicare-ChronicDiseaseManagement,Medicare","Modifications/Access,AcuteCareRehab/Hospital,AssistiveTechnology,Disability,NDISPractice,MentalHealthinc.forensicAODandrefugees,NeurologicalConditions,Paediatrics,Rehabilitation"
"Greater Western Sydney Occupational Therapy","Frances Tinsley",,POBOX9,GLENBROOK,GLE,2773,AUSTRALIA,NDIS,"Disability,Rehabilitation,NeurologicalConditions,Leadership/Management,VisionImpairment,CarerandConsumerFocus,AssistiveTechnology,IntellectualDisability,NDISPractice,PrivatePracticeArea,AutismSpectrumDisorder,CulturalCompetency,AcuteCareRehab/Hospital"
"Parkerville Children and Youth Care","Brooke Toia",,1watertankway,MIDLAND,MID,6056,AUSTRALIA,"MedicareandBetterAccesstoMentalHealth,NDIS,BetterAccesstoMentalHealth(BAMH)Endorsed","AutismSpectrumDisorder,Leadership/Management,MentalHealthinc.forensicAODandrefugees,NDISPractice,ProfessionalSupervision,PrivatePracticeArea,NeurologicalConditions,OccupationalRehab,Rehabilitation,VisionImpairment,Research/Education,IntellectualDisability,Modifications/Access,AcuteCareRehab/Hospital,Disability,FoundationSkills,Paediatrics"
"Fortitude Health Services","Matthew Tolsher",,ServicesArea,WODONGA,WOD,3690,AUSTRALIA,"AgedCare(CommonwealthHomeSupportProgramme/HomeCarePackages),Aidsandequipmentschemes(stateandterritory),DepartmentofVeterans'Affairs(DVA),NDIS","AcuteCareRehab/Hospital,AgedCarePractice,Disability,Leadership/Management,NDISPractice,Modifications/Access,NeurologicalConditions,OccupationalRehab,Rehabilitation"
"Kathryn Townsend","Kathryn Townsend",,,CAMBERWELL,CAM,3124,AUSTRALIA,"AgedCare(CommonwealthHomeSupportProgramme/HomeCarePackages),Medicare,DepartmentofVeterans'Affairs(DVA)","AgedCarePractice,AssistiveTechnology,Rehabilitation,AcuteCareRehab/Hospital,Driving,Modifications/Access"
"The Canberra Hospital","Domenico Tripodi",62443286,"TheCanberraHospitalGilmoreCrescentGarran,ACT2605",GARRAN,GAR,2605,AUSTRALIA,,AcuteCareRehab/Hospital
OHRS,"Barbara Underwood",,146OranaRoad,OCEANSHORES,OCE,2483,AUSTRALIA,"Workcover(QLD,WA),WorkSafe(VIC,ACT,NT,TAS),Workerscompensationschemes(stateandterritory),Transportaccidentbodies(stateandterritory),MedicareandBetterAccesstoMentalHealth,iCare(NSW),LifetimeCareandSupport(ACT,SA),AgedCare(CommonwealthHomeSupportProgramme/HomeCarePackages),Aidsandequipmentschemes(stateandterritory),Comcare,DepartmentofVeterans'Affairs(DVA),EnhancedPrimaryCare,Medicare,Medicare-ChronicDiseaseManagement,NDIS,TAC(VIC),BetterAccesstoMentalHealth(BAMH)Endorsed","Driving,NeurologicalConditions,IntellectualDisability,NDISPractice,OccupationalRehab,OH&amp;S/Ergonomics,PalliativeCareandOncology,PrivatePracticeArea,Rehabilitation,Modifications/Access,Disability,AssistiveTechnology,AcuteCareRehab/Hospital"
"Private Practitioner - PO Box 1032 Gympie Australia Queensland 4570","Barbara van der Heyden",,POBox1032,GYMPIE,GYM,4570,AUSTRALIA,"AgedCare(CommonwealthHomeSupportProgramme/HomeCarePackages),EnhancedPrimaryCare,Medicare,Medicare-ChronicDiseaseManagement","AgedCarePractice,PalliativeCareandOncology,PainManagement,PrivatePracticeArea,VisionImpairment,AcuteCareRehab/Hospital,HandTherapy/Lymphedema,Medico-LegalPractice,NeurologicalConditions,Modifications/Access,Disability,Rehabilitation"
"Private Practice OT (sole trader) -","Olesia Veremchuk",,POBox548,KINGSTON,KIN,7051,AUSTRALIA,"AgedCare(CommonwealthHomeSupportProgramme/HomeCarePackages),Aidsandequipmentschemes(stateandterritory),NDIS,Transportaccidentbodies(stateandterritory)","PrivatePracticeArea,NeurologicalConditions,AcuteCareRehab/Hospital,Modifications/Access,Disability,NDISPractice,Rehabilitation,AssistiveTechnology"
"Launceston General Hospital","Lucy Verhoeven",,,,,,,NDIS,"AcuteCareRehab/Hospital,Disability,AssistiveTechnology,IntellectualDisability,Modifications/Access,NDISPractice,NeurologicalConditions,PainManagement,PalliativeCareandOncology,PrivatePracticeArea,ProfessionalSupervision,CulturalCompetency,AgedCarePractice"
"John Hunter Children's Hospital","Amanda Vickery",,LOOKOUTRD,NEWLAMBTONHEIGHTS,NEW,2305,AUSTRALIA,Medicare,"Paediatrics,Research/Education,AcuteCareRehab/Hospital,FoundationSkills,Disability,NeurologicalConditions,AutismSpectrumDisorder,IntellectualDisability,NDISPractice,PrimaryHealth,Rehabilitation"
"Private OT practice","Anne Wallace",,34HastingsRd,WARRAWEE,WAR,2074,,"DepartmentofVeterans'Affairs(DVA),AgedCare(CommonwealthHomeSupportProgramme/HomeCarePackages),MAC","Modifications/Access,PrimaryHealth,Rehabilitation,AgedCarePractice,PalliativeCareandOncology,AcuteCareRehab/Hospital,AssistiveTechnology,CarerandConsumerFocus,NeurologicalConditions,PrivatePracticeArea"
"The Wesley Hospital","Sarah Wallis",,,AUCHENFLOWER,AUC,4066,AUSTRALIA,Medicare,"AgedCarePractice,AcuteCareRehab/Hospital,NeurologicalConditions,Research/Education,Rehabilitation"
"Full Potential Occupational Therapy","Katrina Warden",,,SUNSHINECOAST,SUN,,AUSTRALIA,"AgedCare(CommonwealthHomeSupportProgramme/HomeCarePackages),Aidsandequipmentschemes(stateandterritory),DepartmentofVeterans'Affairs(DVA),EnhancedPrimaryCare,Medicare,Medicare-ChronicDiseaseManagement,NDIS","Leadership/Management,Medico-LegalPractice,Modifications/Access,NDISPractice,PrivatePracticeArea,AcuteCareRehab/Hospital,NeurologicalConditions,AgedCarePractice,PalliativeCareandOncology,Disability,Rehabilitation,AssistiveTechnology"
"Advance Yourself Occupational Therapy","Kathryn Watson",,Melbourne,VIC,VIC,,,"NDIS,Aidsandequipmentschemes(stateandterritory)","AcuteCareRehab/Hospital,AgedCarePractice,AssistiveTechnology,Disability,IntellectualDisability,Modifications/Access,NDISPractice,NeurologicalConditions,Rehabilitation"
"Australian Health Professionals","Christopher Wellington",,,,,,,"AgedCare(CommonwealthHomeSupportProgramme/HomeCarePackages),Aidsandequipmentschemes(stateandterritory),DepartmentofVeterans'Affairs(DVA),Medicare-ChronicDiseaseManagement,Medicare,NDIS","AssistiveTechnology,AcuteCareRehab/Hospital,Disability,Modifications/Access,HandTherapy/Lymphedema,NDISPractice,MentalHealthinc.forensicAODandrefugees,NeurologicalConditions,OccupationalRehab,AgedCarePractice,Rehabilitation"
"Country Health Connect Murray Bridge","Jemma Westhoff",,96SWANPORTRD,MURRAYBRIDGE,MUR,5253,AUSTRALIA,"AgedCare(CommonwealthHomeSupportProgramme/HomeCarePackages),Aidsandequipmentschemes(stateandterritory),MAC,NDIS","HandTherapy/Lymphedema,AcuteCareRehab/Hospital,AgedCarePractice,AssistiveTechnology,Disability,Modifications/Access,NDISPractice,NeurologicalConditions,Paediatrics,PalliativeCareandOncology,Rehabilitation,AutismSpectrumDisorder"
"Mansfield Hospital","Eileen Wettenhall",0357751933,HighettStreetMansfield,MANSFIELD,MAN,3722,AUSTRALIA,"AgedCare(CommonwealthHomeSupportProgramme/HomeCarePackages),Aidsandequipmentschemes(stateandterritory),EnhancedPrimaryCare,Medicare-ChronicDiseaseManagement,NDIS","Modifications/Access,AcuteCareRehab/Hospital,HandTherapy/Lymphedema,AgedCarePractice,OtherPractice,Rehabilitation"
"Echuca Regional Health","Marie Wycisk",0354548500,OccupationalTherapyDepartmentEchucaRegionalHealthServiceStreet,ECHUCA,ECH,3564,AUSTRALIA,"AgedCare(CommonwealthHomeSupportProgramme/HomeCarePackages),Aidsandequipmentschemes(stateandterritory),AutismSpectrumDisorders,DepartmentofVeterans'Affairs(DVA),NDIS,Medicare-ChronicDiseaseManagement","AcuteCareRehab/Hospital,PainManagement,OtherPractice,AssistiveTechnology"
"Horizon Therapy Services","Xiaomeng Yang",,"22ThynneSt,BruceACT2617",BRUCE,BRU,2617,AUSTRALIA,"AutismSpectrumDisorders,LifetimeCareandSupport(ACT,SA),NDIS,AgedCare(CommonwealthHomeSupportProgramme/HomeCarePackages),Aidsandequipmentschemes(stateandterritory),Comcare,DepartmentofVeterans'Affairs(DVA),EnhancedPrimaryCare,iCare(NSW),MAC,Medicare,Medicare-ChronicDiseaseManagement,MedicareandBetterAccesstoMentalHealth,ReturntoWork(SA),SIRA(NSW),TAC(VIC),Transportaccidentbodies(stateandterritory),Workcover(QLD,WA),Workerscompensationschemes(stateandterritory),WorkSafe(VIC,ACT,NT,TAS)","AutismSpectrumDisorder,Paediatrics,AgedCarePractice,AssistiveTechnology,PainManagement,AcuteCareRehab/Hospital,CarerandConsumerFocus,CommunicationsPartner(SA)-AccreditationRequired,CulturalCompetency,Disability,Driving,FoundationSkills,HandTherapy/Lymphedema,IntellectualDisability,KnowledgeTranslation,Leadership/Management,Medico-LegalPractice,MentalHealthinc.forensicAODandrefugees,Modifications/Access,NDISPractice,NeurologicalConditions,NonClinicalProfessionalDevelopment,OccupationalRehab,OH&amp;S/Ergonomics,OtherPractice,PalliativeCareandOncology,PolicyandProcess,PrimaryHealth,PrivatePracticeArea,ProfessionalSupervision,Rehabilitation,Research/Education,VisionImpairment"
"Living to the Max Occupational Therapy Services","Aleisha Zamperin",,291THEPARADE,BEULAHPARK,BEU,5067,AUSTRALIA,"AgedCare(CommonwealthHomeSupportProgramme/HomeCarePackages),Aidsandequipmentschemes(stateandterritory),DepartmentofVeterans'Affairs(DVA),MAC,NDIS","AgedCarePractice,Disability,Modifications/Access,Rehabilitation,AcuteCareRehab/Hospital,HandTherapy/Lymphedema,NDISPractice,NeurologicalConditions,ProfessionalSupervision"
